{"type": "FeatureCollection", "features": [ {"type": "Feature", "properties": {"norad_id": 36366, "name": "COSMOS 2251 DEB", "group": "cosmos-2251-debris", "lat": 19.992582899360528, "lon": 74.09916978205686, "alt_km": 819.1905955773545, "timestamp": "2025-12-19T20:43:00.483111+00:00", "meta": {"OBJECT_NAME": "COSMOS 2251 DEB", "OBJECT_ID": "1993-036AYT", "EPOCH": "2025-12-18T10:28:10.933824", "MEAN_MOTION": 14.33441246, "ECCENTRICITY": 0.00903868, "INCLINATION": 74.0662, "RA_OF_ASC_NODE": 262.6684, "ARG_OF_PERICENTER": 289.8178, "MEAN_ANOMALY": 69.3247, "EPHEMERIS_TYPE": 0, "CLASSIFICATION_TYPE": "U", "NORAD_CAT_ID": 36366, "ELEMENT_SET_NO": 999, "REV_AT_EPOCH": 86370, "BSTAR": 0.0013274586, "MEAN_MOTION_DOT": 3.811e-05, "MEAN_MOTION_DDOT": 0}, "tle": {"line1": "1 36366U 93036AYT 25352.43623766  .00003811  00000+0  13275-2 0  9991", "line2": "2 36366  74.0662 262.6684 0090386 289.8178  69.3247 14.33441246863701"}}, "geometry": {"type": "Point", "coordinates": [74.09916978205686, 19.992582899360528]}}, {"type": "Feature", "properties": {"norad_id": 36367, "name": "COSMOS 2251 DEB", "group": "cosmos-2251-debris", "lat": 66.3237067401269, "lon": -100.05150277867669, "alt_km": 1082.9207121186464, "timestamp": "2025-12-19T20:43:00.483122+00:00", "meta": {"OBJECT_NAME": "COSMOS 2251 DEB", "OBJECT_ID": "1993-036AYU", "EPOCH": "2025-12-16T09:14:18.433248", "MEAN_MOTION": 13.86349505, "ECCENTRICITY": 0.02621043, "INCLINATION": 74.1014, "RA_OF_ASC_NODE": 225.2719, "ARG_OF_PERICENTER": 297.3835, "MEAN_ANOMALY": 60.0842, "EPHEMERIS_TYPE": 0, "CLASSIFICATION_TYPE": "U", "NORAD_CAT_ID": 36367, "ELEMENT_SET_NO": 999, "REV_AT_EPOCH": 57580, "BSTAR": 0.0011645262, "MEAN_MOTION_DOT": 1.741e-05, "MEAN_MOTION_DDOT": 0}, "tle": {"line1": "1 36367U 93036AYU 25350.38493557  .00001741  00000+0  11645-2 0  9996", "line2": "2 36367  74.1014 225.2719 0262104 297.3835  60.0842 13.86349505575803"}}, "geometry": {"type": "Point", "coordinates": [-100.05150277867669, 66.3237067401269]}}, {"type": "Feature", "properties": {"norad_id": 36369, "name": "COSMOS 2251 DEB", "group": "cosmos-2251-debris", "lat": -50.22874789198763, "lon": 36.71476723414203, "alt_km": 663.6233124461914, "timestamp": "2025-12-19T20:43:00.483132+00:00", "meta": {"OBJECT_NAME": "COSMOS 2251 DEB", "OBJECT_ID": "1993-036AYW", "EPOCH": "2025-12-16T11:29:35.574144", "MEAN_MOTION": 14.73629062, "ECCENTRICITY": 0.00109821, "INCLINATION": 74.0316, "RA_OF_ASC_NODE": 63.4356, "ARG_OF_PERICENTER": 140.037, "MEAN_ANOMALY": 220.1613, "EPHEMERIS_TYPE": 0, "CLASSIFICATION_TYPE": "U", "NORAD_CAT_ID": 36369, "ELEMENT_SET_NO": 999, "REV_AT_EPOCH": 85977, "BSTAR": 0.00089048503, "MEAN_MOTION_DOT": 5.781e-05, "MEAN_MOTION_DDOT": 0}, "tle": {"line1": "1 36369U 93036AYW 25350.47888396  .00005781  00000+0  89049-3 0  9999", "line2": "2 36369  74.0316  63.4356 0010982 140.0370 220.1613 14.73629062859773"}}, "geometry": {"type": "Point", "coordinates": [36.71476723414203, -50.22874789198763]}}, {"type": "Feature", "properties": {"norad_id": 36371, "name": "COSMOS 2251 DEB", "group": "cosmos-2251-debris", "lat": 36.71792624989122, "lon": -44.65686761763762, "alt_km": 651.0728423480105, "timestamp": "2025-12-19T20:43:00.483142+00:00", "meta": {"OBJECT_NAME": "COSMOS 2251 DEB", "OBJECT_ID": "1993-036AYY", "EPOCH": "2025-12-17T04:24:24.496704", "MEAN_MOTION": 14.70697295, "ECCENTRICITY": 0.00093434, "INCLINATION": 74.0124, "RA_OF_ASC_NODE": 152.897, "ARG_OF_PERICENTER": 191.9871, "MEAN_ANOMALY": 168.1079, "EPHEMERIS_TYPE": 0, "CLASSIFICATION_TYPE": "U", "NORAD_CAT_ID": 36371, "ELEMENT_SET_NO": 999, "REV_AT_EPOCH": 71510, "BSTAR": 0.0014821732, "MEAN_MOTION_DOT": 9.018e-05, "MEAN_MOTION_DDOT": 0}, "tle": {"line1": "1 36371U 93036AYY 25351.18361686  .00009018  00000+0  14822-2 0  9992", "line2": "2 36371  74.0124 152.8970 0009343 191.9871 168.1079 14.70697295715103"}}, "geometry": {"type": "Point", "coordinates": [-44.65686761763762, 36.71792624989122]}}, {"type": "Feature", "properties": {"norad_id": 36379, "name": "COSMOS 2251 DEB", "group": "cosmos-2251-debris", "lat": 39.72028313864937, "lon": 99.94679149058277, "alt_km": 760.9920003560801, "timestamp": "2025-12-19T20:43:00.483153+00:00", "meta": {"OBJECT_NAME": "COSMOS 2251 DEB", "OBJECT_ID": "1993-036AZG", "EPOCH": "2025-12-17T15:24:04.295232", "MEAN_MOTION": 14.36087226, "ECCENTRICITY": 0.00447272, "INCLINATION": 74.0127, "RA_OF_ASC_NODE": 297.8094, "ARG_OF_PERICENTER": 65.3038, "MEAN_ANOMALY": 112.1684, "EPHEMERIS_TYPE": 0, "CLASSIFICATION_TYPE": "U", "NORAD_CAT_ID": 36379, "ELEMENT_SET_NO": 999, "REV_AT_EPOCH": 64898, "BSTAR": 0.00025368539, "MEAN_MOTION_DOT": 7.21e-06, "MEAN_MOTION_DDOT": 0}, "tle": {"line1": "1 36379U 93036AZG 25351.64171638  .00000721  00000+0  25369-3 0  9998", "line2": "2 36379  74.0127 297.8094 0044727  65.3038 112.1684 14.36087226648986"}}, "geometry": {"type": "Point", "coordinates": [99.94679149058277, 39.72028313864937]}}, {"type": "Feature", "properties": {"norad_id": 36385, "name": "COSMOS 2251 DEB", "group": "cosmos-2251-debris", "lat": -51.90517959280783, "lon": 119.09324324097258, "alt_km": 560.6725526222626, "timestamp": "2025-12-19T20:43:00.483163+00:00", "meta": {"OBJECT_NAME": "COSMOS 2251 DEB", "OBJECT_ID": "1993-036AZN", "EPOCH": "2025-12-18T20:30:15.909120", "MEAN_MOTION": 14.72670627, "ECCENTRICITY": 0.01414565, "INCLINATION": 73.9692, "RA_OF_ASC_NODE": 142.5811, "ARG_OF_PERICENTER": 315.6212, "MEAN_ANOMALY": 43.369, "EPHEMERIS_TYPE": 0, "CLASSIFICATION_TYPE": "U", "NORAD_CAT_ID": 36385, "ELEMENT_SET_NO": 999, "REV_AT_EPOCH": 85192, "BSTAR": 0.00099972778, "MEAN_MOTION_DOT": 7.44e-05, "MEAN_MOTION_DDOT": 0}, "tle": {"line1": "1 36385U 93036AZN 25352.85435080  .00007440  00000+0  99973-3 0  9990", "line2": "2 36385  73.9692 142.5811 0141456 315.6212  43.3690 14.72670627851928"}}, "geometry": {"type": "Point", "coordinates": [119.09324324097258, -51.90517959280783]}}, {"type": "Feature", "properties": {"norad_id": 36420, "name": "COSMOS 2251 DEB", "group": "cosmos-2251-debris", "lat": 36.376006458861134, "lon": -85.44107794375745, "alt_km": 757.3597077834829, "timestamp": "2025-12-19T20:43:00.483174+00:00", "meta": {"OBJECT_NAME": "COSMOS 2251 DEB", "OBJECT_ID": "1993-036AZT", "EPOCH": "2025-12-16T13:10:06.446208", "MEAN_MOTION": 14.36904576, "ECCENTRICITY": 0.00182942, "INCLINATION": 74.0376, "RA_OF_ASC_NODE": 268.4783, "ARG_OF_PERICENTER": 355.3587, "MEAN_ANOMALY": 184.0352, "EPHEMERIS_TYPE": 0, "CLASSIFICATION_TYPE": "U", "NORAD_CAT_ID": 36420, "ELEMENT_SET_NO": 999, "REV_AT_EPOCH": 85091, "BSTAR": 0.0001395606, "MEAN_MOTION_DOT": 3.87e-06, "MEAN_MOTION_DDOT": 0}, "tle": {"line1": "1 36420U 93036AZT 25350.54868572  .00000387  00000+0  13956-3 0  9990", "line2": "2 36420  74.0376 268.4783 0018294 355.3587 184.0352 14.36904576850913"}}, "geometry": {"type": "Point", "coordinates": [-85.44107794375745, 36.376006458861134]}}, {"type": "Feature", "properties": {"norad_id": 36430, "name": "COSMOS 2251 DEB", "group": "cosmos-2251-debris", "lat": -4.476900688600881, "lon": -83.11286728046235, "alt_km": 766.3722458650809, "timestamp": "2025-12-19T20:43:00.483185+00:00", "meta": {"OBJECT_NAME": "COSMOS 2251 DEB", "OBJECT_ID": "1993-036BAD", "EPOCH": "2025-12-17T14:02:08.838528", "MEAN_MOTION": 14.27804633, "ECCENTRICITY": 0.00972961, "INCLINATION": 74.0048, "RA_OF_ASC_NODE": 99.7344, "ARG_OF_PERICENTER": 248.7934, "MEAN_ANOMALY": 110.2799, "EPHEMERIS_TYPE": 0, "CLASSIFICATION_TYPE": "U", "NORAD_CAT_ID": 36430, "ELEMENT_SET_NO": 999, "REV_AT_EPOCH": 64626, "BSTAR": 0.00041842357, "MEAN_MOTION_DOT": 1.061e-05, "MEAN_MOTION_DDOT": 0}, "tle": {"line1": "1 36430U 93036BAD 25351.58482452  .00001061  00000+0  41842-3 0  9990", "line2": "2 36430  74.0048  99.7344 0097296 248.7934 110.2799 14.27804633646268"}}, "geometry": {"type": "Point", "coordinates": [-83.11286728046235, -4.476900688600881]}}, {"type": "Feature", "properties": {"norad_id": 36437, "name": "COSMOS 2251 DEB", "group": "cosmos-2251-debris", "lat": -30.196486924022, "lon": -150.257418737982, "alt_km": 651.484588338496, "timestamp": "2025-12-19T20:43:00.483195+00:00", "meta": {"OBJECT_NAME": "COSMOS 2251 DEB", "OBJECT_ID": "1993-036BAL", "EPOCH": "2025-12-17T10:37:14.678400", "MEAN_MOTION": 14.70771964, "ECCENTRICITY": 0.00232298, "INCLINATION": 73.9427, "RA_OF_ASC_NODE": 24.8176, "ARG_OF_PERICENTER": 256.1896, "MEAN_ANOMALY": 103.669, "EPHEMERIS_TYPE": 0, "CLASSIFICATION_TYPE": "U", "NORAD_CAT_ID": 36437, "ELEMENT_SET_NO": 999, "REV_AT_EPOCH": 66120, "BSTAR": 0.001110469, "MEAN_MOTION_DOT": 6.78e-05, "MEAN_MOTION_DDOT": 0}, "tle": {"line1": "1 36437U 93036BAL 25351.44253100  .00006780  00000+0  11105-2 0  9999", "line2": "2 36437  73.9427  24.8176 0023229 256.1896 103.6690 14.70771964661206"}}, "geometry": {"type": "Point", "coordinates": [-150.257418737982, -30.196486924022]}}, {"type": "Feature", "properties": {"norad_id": 36439, "name": "COSMOS 2251 DEB", "group": "cosmos-2251-debris", "lat": -43.39194993095085, "lon": -138.8785002934719, "alt_km": 1284.6605130706375, "timestamp": "2025-12-19T20:43:00.483206+00:00", "meta": {"OBJECT_NAME": "COSMOS 2251 DEB", "OBJECT_ID": "1993-036BAN", "EPOCH": "2025-12-16T11:25:24.463776", "MEAN_MOTION": 13.47804354, "ECCENTRICITY": 0.04280619, "INCLINATION": 73.9685, "RA_OF_ASC_NODE": 30.7531, "ARG_OF_PERICENTER": 1.8523, "MEAN_ANOMALY": 358.4044, "EPHEMERIS_TYPE": 0, "CLASSIFICATION_TYPE": "U", "NORAD_CAT_ID": 36439, "ELEMENT_SET_NO": 999, "REV_AT_EPOCH": 58663, "BSTAR": 0.0011092098, "MEAN_MOTION_DOT": 1.175e-05, "MEAN_MOTION_DDOT": 0}, "tle": {"line1": "1 36439U 93036BAN 25350.47597759  .00001175  00000+0  11092-2 0  9992", "line2": "2 36439  73.9685  30.7531 0428061   1.8523 358.4044 13.47804354586639"}}, "geometry": {"type": "Point", "coordinates": [-138.8785002934719, -43.39194993095085]}}]}